[{"OBJECT_NAME":"YAOGAN-31 03C","OBJECT_ID":"2021-014E","EPOCH":"2026-03-10T00:23:44.728224","MEAN_MOTION":13.45441798,"ECCENTRICITY":0.01685112,"INCLINATION":63.4015,"RA_OF_ASC_NODE":92.564,"ARG_OF_PERICENTER":0.4997,"MEAN_ANOMALY":359.6168,"EPHEMERIS_TYPE":0,"CLASSIFICATION_TYPE":"U","NORAD_CAT_ID":47695,"ELEMENT_SET_NO":999,"REV_AT_EPOCH":24738,"BSTAR":0.00041950117,"MEAN_MOTION_DOT":1.81e-6,"MEAN_MOTION_DDOT":0},{"OBJECT_NAME":"ONEWEB-0385","OBJECT_ID":"2021-090AJ","EPOCH":"2026-03-09T16:03:33.684768","MEAN_MOTION":13.20771158,"ECCENTRICITY":0.00014182,"INCLINATION":87.9171,"RA_OF_ASC_NODE":294.3107,"ARG_OF_PERICENTER":81.2211,"MEAN_ANOMALY":278.9083,"EPHEMERIS_TYPE":0,"CLASSIFICATION_TYPE":"U","NORAD_CAT_ID":49311,"ELEMENT_SET_NO":999,"REV_AT_EPOCH":21666,"BSTAR":-5.0970124e-5,"MEAN_MOTION_DOT":-8.0e-8,"MEAN_MOTION_DDOT":0}]
